[{"OBJECT_NAME":"STARLINK-3943","OBJECT_ID":"2022-051AA","EPOCH":"2026-03-09T09:16:12.005184","MEAN_MOTION":15.08833945,"ECCENTRICITY":0.00014326,"INCLINATION":53.217,"RA_OF_ASC_NODE":130.4823,"ARG_OF_PERICENTER":103.149,"MEAN_ANOMALY":256.9662,"EPHEMERIS_TYPE":0,"CLASSIFICATION_TYPE":"U","NORAD_CAT_ID":52557,"ELEMENT_SET_NO":999,"REV_AT_EPOCH":21140,"BSTAR":-2.8406095e-5,"MEAN_MOTION_DOT":-7.4e-6,"MEAN_MOTION_DDOT":0},{"OBJECT_NAME":"ASTRO-H (HITOMI)","OBJECT_ID":"2016-012A","EPOCH":"2026-03-09T04:06:47.322720","MEAN_MOTION":15.10001629,"ECCENTRICITY":0.0009877,"INCLINATION":31.0008,"RA_OF_ASC_NODE":359.8923,"ARG_OF_PERICENTER":325.8962,"MEAN_ANOMALY":34.1041,"EPHEMERIS_TYPE":0,"CLASSIFICATION_TYPE":"U","NORAD_CAT_ID":41337,"ELEMENT_SET_NO":999,"REV_AT_EPOCH":55215,"BSTAR":0.00025536822,"MEAN_MOTION_DOT":4.351e-5,"MEAN_MOTION_DDOT":0}]
